{
  "norad_id": 53553,
  "name": "STARLINK-4501",
  "history": [
    {
      "epoch": "2026-03-28T20:50:50.194464Z",
      "apogee_km": 540.9919781653989,
      "perigee_km": 538.5036150040669,
      "latitude_deg": -1.1735336152781838e-06,
      "longitude_deg": -161.0930475990266,
      "height_km": 540.9241475429295,
      "semi_major_axis_km": 6917.884796584733,
      "eccentricity": 0.00017985,
      "inclination_deg": 53.2203,
      "raan_deg": 337.899,
      "arg_perigee_deg": 103.048,
      "mean_anomaly_deg": 257.0713,
      "mean_motion_rev_day": 15.08838558
    },
    {
      "epoch": "2026-03-29T03:12:22.494816Z",
      "apogee_km": 540.9226832397699,
      "perigee_km": 538.5484693715816,
      "latitude_deg": 1.1823291333942461e-05,
      "longitude_deg": 102.07142356696212,
      "height_km": 540.8373287108967,
      "semi_major_axis_km": 6917.8725763056755,
      "eccentricity": 0.0001716,
      "inclination_deg": 53.219,
      "raan_deg": 336.7092,
      "arg_perigee_deg": 100.0101,
      "mean_anomaly_deg": 260.1085,
      "mean_motion_rev_day": 15.08842556
    },
    {
      "epoch": "2026-03-30T01:27:46.824768Z",
      "apogee_km": 540.9940596528086,
      "perigee_km": 538.5063874072275,
      "latitude_deg": -1.0818591044237194e-05,
      "longitude_deg": 123.14367985940918,
      "height_km": 540.6786813100417,
      "semi_major_axis_km": 6917.887223530018,
      "eccentricity": 0.0001798,
      "inclination_deg": 53.2199,
      "raan_deg": 332.5469,
      "arg_perigee_deg": 91.5251,
      "mean_anomaly_deg": 268.5947,
      "mean_motion_rev_day": 15.08837764
    },
    {
      "epoch": "2026-03-30T01:27:46.825632Z",
      "apogee_km": 540.9937137584475,
      "perigee_km": 538.5067333015886,
      "latitude_deg": -6.202972488791394e-06,
      "longitude_deg": 123.14367968105182,
      "height_km": 540.6786721041213,
      "semi_major_axis_km": 6917.887223530018,
      "eccentricity": 0.00017975,
      "inclination_deg": 53.2199,
      "raan_deg": 332.5469,
      "arg_perigee_deg": 91.5251,
      "mean_anomaly_deg": 268.5947,
      "mean_motion_rev_day": 15.08837764
    },
    {
      "epoch": "2026-03-30T22:07:47.458848Z",
      "apogee_km": 540.8290210569648,
      "perigee_km": 538.6540400469594,
      "latitude_deg": 1.0936609957320697e-05,
      "longitude_deg": 168.42449795484583,
      "height_km": 540.7114621022297,
      "semi_major_axis_km": 6917.878530551961,
      "eccentricity": 0.0001572,
      "inclination_deg": 53.2173,
      "raan_deg": 328.6791,
      "arg_perigee_deg": 93.9298,
      "mean_anomaly_deg": 266.1874,
      "mean_motion_rev_day": 15.08840608
    },
    {
      "epoch": "2026-03-31T18:47:48.309792Z",
      "apogee_km": 540.7732768969763,
      "perigee_km": 538.7241991413748,
      "latitude_deg": -6.388682619413602e-05,
      "longitude_deg": -146.29306163726315,
      "height_km": 540.6696081663126,
      "semi_major_axis_km": 6917.885738019175,
      "eccentricity": 0.0001481,
      "inclination_deg": 53.2172,
      "raan_deg": 324.8139,
      "arg_perigee_deg": 91.4175,
      "mean_anomaly_deg": 268.6986,
      "mean_motion_rev_day": 15.0883825
    },
    {
      "epoch": "2026-04-01T01:09:20.739744Z",
      "apogee_km": 540.7076934484148,
      "perigee_km": 538.7701347623924,
      "latitude_deg": 3.317628395745493e-05,
      "longitude_deg": 116.87043090292674,
      "height_km": 540.6531166226403,
      "semi_major_axis_km": 6917.875914105403,
      "eccentricity": 0.00014004,
      "inclination_deg": 53.2179,
      "raan_deg": 323.6236,
      "arg_perigee_deg": 91.0944,
      "mean_anomaly_deg": 269.0209,
      "mean_motion_rev_day": 15.08841464
    },
    {
      "epoch": "2026-04-02T15:18:36.266400Z",
      "apogee_km": 540.6698165770704,
      "perigee_km": 538.828551990262,
      "latitude_deg": -4.907370507041842e-05,
      "longitude_deg": -104.14856498596636,
      "height_km": 540.6291908954003,
      "semi_major_axis_km": 6917.886184283666,
      "eccentricity": 0.00013308,
      "inclination_deg": 53.2179,
      "raan_deg": 316.4863,
      "arg_perigee_deg": 89.0166,
      "mean_anomaly_deg": 271.0978,
      "mean_motion_rev_day": 15.08838104
    },
    {
      "epoch": "2026-04-02T21:40:08.675616Z",
      "apogee_km": 540.6620855141509,
      "perigee_km": 538.8197162715842,
      "latitude_deg": -4.883739479043804e-05,
      "longitude_deg": 159.01614201906582,
      "height_km": 540.6016086235884,
      "semi_major_axis_km": 6917.877900892867,
      "eccentricity": 0.00013316,
      "inclination_deg": 53.2177,
      "raan_deg": 315.2972,
      "arg_perigee_deg": 87.8176,
      "mean_anomaly_deg": 272.2968,
      "mean_motion_rev_day": 15.08840814
    },
    {
      "epoch": "2026-04-03T18:20:09.986208Z",
      "apogee_km": 540.8898746957311,
      "perigee_km": 538.6111225536843,
      "latitude_deg": 2.2595042232250095e-06,
      "longitude_deg": -155.70034557160602,
      "height_km": 540.9538090266627,
      "semi_major_axis_km": 6917.887498624707,
      "eccentricity": 0.0001647,
      "inclination_deg": 53.2203,
      "raan_deg": 311.4349,
      "arg_perigee_deg": 105.6636,
      "mean_anomaly_deg": 254.4538,
      "mean_motion_rev_day": 15.08837674
    },
    {
      "epoch": "2026-04-04T00:41:42.563040Z",
      "apogee_km": 540.825553531974,
      "perigee_km": 538.6680039390621,
      "latitude_deg": -2.25841485822593e-05,
      "longitude_deg": 107.46404224566369,
      "height_km": 540.8869169200316,
      "semi_major_axis_km": 6917.883778735518,
      "eccentricity": 0.00015594,
      "inclination_deg": 53.2202,
      "raan_deg": 310.2462,
      "arg_perigee_deg": 103.0919,
      "mean_anomaly_deg": 257.0247,
      "mean_motion_rev_day": 15.08838891
    },
    {
      "epoch": "2026-04-05T14:50:57.992064Z",
      "apogee_km": 540.7608369414247,
      "perigee_km": 538.7650228116563,
      "latitude_deg": -2.3804286519432723e-05,
      "longitude_deg": -113.55578913336664,
      "height_km": 540.7785808978157,
      "semi_major_axis_km": 6917.89992987654,
      "eccentricity": 0.00014425,
      "inclination_deg": 53.2199,
      "raan_deg": 303.1076,
      "arg_perigee_deg": 96.8939,
      "mean_anomaly_deg": 263.2217,
      "mean_motion_rev_day": 15.08833607
    },
    {
      "epoch": "2026-04-05T19:37:07.458816Z",
      "apogee_km": 540.7382106130008,
      "perigee_km": 538.7818293357523,
      "latitude_deg": 5.365537500023244e-05,
      "longitude_deg": 173.81685525911126,
      "height_km": 540.757656483574,
      "semi_major_axis_km": 6917.897019974376,
      "eccentricity": 0.0001414,
      "inclination_deg": 53.2194,
      "raan_deg": 302.2155,
      "arg_perigee_deg": 95.9732,
      "mean_anomaly_deg": 264.1422,
      "mean_motion_rev_day": 15.08834559
    },
    {
      "epoch": "2026-04-06T06:44:49.311456Z",
      "apogee_km": 540.7836765299189,
      "perigee_km": 538.7069282627399,
      "latitude_deg": -1.2731717825703796e-05,
      "longitude_deg": 4.353396148733986,
      "height_km": 540.6368381537305,
      "semi_major_axis_km": 6917.88230239633,
      "eccentricity": 0.0001501,
      "inclination_deg": 53.2195,
      "raan_deg": 300.1335,
      "arg_perigee_deg": 89.7683,
      "mean_anomaly_deg": 270.3481,
      "mean_motion_rev_day": 15.08839374
    },
    {
      "epoch": "2026-04-06T21:03:17.418816Z",
      "apogee_km": 540.6879362785294,
      "perigee_km": 538.785521003153,
      "latitude_deg": 2.368178235834895e-05,
      "longitude_deg": 146.47260696335306,
      "height_km": 540.6444028210525,
      "semi_major_axis_km": 6917.873728640841,
      "eccentricity": 0.0001375,
      "inclination_deg": 53.2189,
      "raan_deg": 297.4574,
      "arg_perigee_deg": 90.7127,
      "mean_anomaly_deg": 269.4023,
      "mean_motion_rev_day": 15.08842179
    },
    {
      "epoch": "2026-04-07T17:43:18.160896Z",
      "apogee_km": 540.6704320406898,
      "perigee_km": 538.8192068658045,
      "latitude_deg": -3.1746380297730485e-05,
      "longitude_deg": -168.24588702328487,
      "height_km": 540.6700167573653,
      "semi_major_axis_km": 6917.881819453247,
      "eccentricity": 0.0001338,
      "inclination_deg": 53.2181,
      "raan_deg": 293.5908,
      "arg_perigee_deg": 91.819,
      "mean_anomaly_deg": 268.2955,
      "mean_motion_rev_day": 15.08839532
    },
    {
      "epoch": "2026-04-08T12:47:55.764384Z",
      "apogee_km": 540.6794868788011,
      "perigee_km": 538.8095834998394,
      "latitude_deg": 6.40995423318418e-07,
      "longitude_deg": -98.75411571074021,
      "height_km": 540.6552986199755,
      "semi_major_axis_km": 6917.88153518932,
      "eccentricity": 0.00013515,
      "inclination_deg": 53.2179,
      "raan_deg": 290.0227,
      "arg_perigee_deg": 90.9188,
      "mean_anomaly_deg": 269.1959,
      "mean_motion_rev_day": 15.08839625
    },
    {
      "epoch": "2026-04-09T01:31:00.721056Z",
      "apogee_km": 540.6825147638974,
      "perigee_km": 538.7982233261164,
      "latitude_deg": -4.693501396381306e-06,
      "longitude_deg": 67.57331441019684,
      "height_km": 540.6784354837853,
      "semi_major_axis_km": 6917.877369045006,
      "eccentricity": 0.00013619,
      "inclination_deg": 53.2182,
      "raan_deg": 287.6431,
      "arg_perigee_deg": 92.5718,
      "mean_anomaly_deg": 267.543,
      "mean_motion_rev_day": 15.08840988
    },
    {
      "epoch": "2026-04-11T18:41:49.989120Z",
      "apogee_km": 540.7052697698919,
      "perigee_km": 538.8166836222545,
      "latitude_deg": 5.1311913607563385e-05,
      "longitude_deg": 155.0005041786525,
      "height_km": 540.7748161276994,
      "semi_major_axis_km": 6917.897976696073,
      "eccentricity": 0.0001365,
      "inclination_deg": 53.2184,
      "raan_deg": 275.4524,
      "arg_perigee_deg": 97.1804,
      "mean_anomaly_deg": 262.9344,
      "mean_motion_rev_day": 15.08834246
    }
  ]
}